[{"OBJECT_NAME":"OSCAR 7 (AO-7)","OBJECT_ID":"1974-089B","EPOCH":"2026-03-07T15:37:54.079104","MEAN_MOTION":12.53696343,"ECCENTRICITY":0.00119857,"INCLINATION":101.997,"RA_OF_ASC_NODE":78.8192,"ARG_OF_PERICENTER":326.0793,"MEAN_ANOMALY":145.7011,"EPHEMERIS_TYPE":0,"CLASSIFICATION_TYPE":"U","NORAD_CAT_ID":7530,"ELEMENT_SET_NO":999,"REV_AT_EPOCH":34779,"BSTAR":-5.853947e-6,"MEAN_MOTION_DOT":-4.7e-7,"MEAN_MOTION_DDOT":0},{"OBJECT_NAME":"PHASE 3B (AO-10)","OBJECT_ID":"1983-058B","EPOCH":"2026-03-02T12:48:52.290720","MEAN_MOTION":2.05874052,"ECCENTRICITY":0.6049007,"INCLINATION":25.932,"RA_OF_ASC_NODE":237.486,"ARG_OF_PERICENTER":86.0782,"MEAN_ANOMALY":336.7646,"EPHEMERIS_TYPE":0,"CLASSIFICATION_TYPE":"U","NORAD_CAT_ID":14129,"ELEMENT_SET_NO":999,"REV_AT_EPOCH":29329,"BSTAR":0,"MEAN_MOTION_DOT":-1.64e-6,"MEAN_MOTION_DDOT":0},{"OBJECT_NAME":"UOSAT 2 (UO-11)","OBJECT_ID":"1984-021B","EPOCH":"2026-03-07T09:23:12.363648","MEAN_MOTION":14.90497936,"ECCENTRICITY":0.00082417,"INCLINATION":97.795,"RA_OF_ASC_NODE":33.1906,"ARG_OF_PERICENTER":150.1326,"MEAN_ANOMALY":210.0364,"EPHEMERIS_TYPE":0,"CLASSIFICATION_TYPE":"U","NORAD_CAT_ID":14781,"ELEMENT_SET_NO":999,"REV_AT_EPOCH":24196,"BSTAR":0.00029262986,"MEAN_MOTION_DOT":2.803e-5,"MEAN_MOTION_DDOT":0},{"OBJECT_NAME":"LUSAT (LO-19)","OBJECT_ID":"1990-005G","EPOCH":"2026-03-07T14:20:37.454208","MEAN_MOTION":14.34087096,"ECCENTRICITY":0.00122612,"INCLINATION":98.8937,"RA_OF_ASC_NODE":85.5652,"ARG_OF_PERICENTER":140.167,"MEAN_ANOMALY":220.0416,"EPHEMERIS_TYPE":0,"CLASSIFICATION_TYPE":"U","NORAD_CAT_ID":20442,"ELEMENT_SET_NO":999,"REV_AT_EPOCH":88783,"BSTAR":9.3148327e-5,"MEAN_MOTION_DOT":2.14e-6,"MEAN_MOTION_DDOT":0},{"OBJECT_NAME":"EYESAT A (AO-27)","OBJECT_ID":"1993-061C","EPOCH":"2026-03-07T09:35:16.342944","MEAN_MOTION":14.30912258,"ECCENTRICITY":0.00090574,"INCLINATION":98.6986,"RA_OF_ASC_NODE":133.8077,"ARG_OF_PERICENTER":45.1996,"MEAN_ANOMALY":314.9921,"EPHEMERIS_TYPE":0,"CLASSIFICATION_TYPE":"U","NORAD_CAT_ID":22825,"ELEMENT_SET_NO":999,"REV_AT_EPOCH":69244,"BSTAR":8.0825709e-5,"MEAN_MOTION_DOT":1.68e-6,"MEAN_MOTION_DDOT":0},{"OBJECT_NAME":"ITAMSAT (IO-26)","OBJECT_ID":"1993-061D","EPOCH":"2026-03-07T03:06:30.031200","MEAN_MOTION":14.31335939,"ECCENTRICITY":0.00093354,"INCLINATION":98.6935,"RA_OF_ASC_NODE":133.445,"ARG_OF_PERICENTER":30.2249,"MEAN_ANOMALY":329.9471,"EPHEMERIS_TYPE":0,"CLASSIFICATION_TYPE":"U","NORAD_CAT_ID":22826,"ELEMENT_SET_NO":999,"REV_AT_EPOCH":69271,"BSTAR":7.3924286e-5,"MEAN_MOTION_DOT":1.51e-6,"MEAN_MOTION_DDOT":0},{"OBJECT_NAME":"RADIO ROSTO (RS15)","OBJECT_ID":"1994-085A","EPOCH":"2026-03-07T13:36:28.082016","MEAN_MOTION":11.27583921,"ECCENTRICITY":0.01525865,"INCLINATION":64.8142,"RA_OF_ASC_NODE":107.5666,"ARG_OF_PERICENTER":22.4265,"MEAN_ANOMALY":338.3238,"EPHEMERIS_TYPE":0,"CLASSIFICATION_TYPE":"U","NORAD_CAT_ID":23439,"ELEMENT_SET_NO":999,"REV_AT_EPOCH":28444,"BSTAR":0.00011784518,"MEAN_MOTION_DOT":-3.8e-7,"MEAN_MOTION_DDOT":0},{"OBJECT_NAME":"JAS-2 (FO-29)","OBJECT_ID":"1996-046B","EPOCH":"2026-03-07T13:50:19.254336","MEAN_MOTION":13.53268594,"ECCENTRICITY":0.03499156,"INCLINATION":98.5383,"RA_OF_ASC_NODE":289.282,"ARG_OF_PERICENTER":0.2496,"MEAN_ANOMALY":359.8759,"EPHEMERIS_TYPE":0,"CLASSIFICATION_TYPE":"U","NORAD_CAT_ID":24278,"ELEMENT_SET_NO":999,"REV_AT_EPOCH":45942,"BSTAR":2.0950667e-5,"MEAN_MOTION_DOT":-1.5e-7,"MEAN_MOTION_DDOT":0},{"OBJECT_NAME":"TECHSAT 1B (GO-32)","OBJECT_ID":"1998-043D","EPOCH":"2026-03-07T11:48:51.873984","MEAN_MOTION":14.24405496,"ECCENTRICITY":0.00020084,"INCLINATION":99.0027,"RA_OF_ASC_NODE":56.711,"ARG_OF_PERICENTER":122.9565,"MEAN_ANOMALY":237.1806,"EPHEMERIS_TYPE":0,"CLASSIFICATION_TYPE":"U","NORAD_CAT_ID":25397,"ELEMENT_SET_NO":999,"REV_AT_EPOCH":43685,"BSTAR":7.8798833e-5,"MEAN_MOTION_DOT":1.36e-6,"MEAN_MOTION_DDOT":0},{"OBJECT_NAME":"ISS (ZARYA)","OBJECT_ID":"1998-067A","EPOCH":"2026-03-07T12:18:20.403360","MEAN_MOTION":15.48507964,"ECCENTRICITY":0.00081324,"INCLINATION":51.6318,"RA_OF_ASC_NODE":83.1189,"ARG_OF_PERICENTER":167.0679,"MEAN_ANOMALY":193.052,"EPHEMERIS_TYPE":0,"CLASSIFICATION_TYPE":"U","NORAD_CAT_ID":25544,"ELEMENT_SET_NO":999,"REV_AT_EPOCH":55599,"BSTAR":0.00027601504,"MEAN_MOTION_DOT":0.00014539,"MEAN_MOTION_DDOT":0},{"OBJECT_NAME":"PCSAT (NO-44)","OBJECT_ID":"2001-043C","EPOCH":"2026-03-07T14:27:46.924416","MEAN_MOTION":14.31911163,"ECCENTRICITY":0.00070114,"INCLINATION":67.0508,"RA_OF_ASC_NODE":147.0104,"ARG_OF_PERICENTER":265.2989,"MEAN_ANOMALY":94.7312,"EPHEMERIS_TYPE":0,"CLASSIFICATION_TYPE":"U","NORAD_CAT_ID":26931,"ELEMENT_SET_NO":999,"REV_AT_EPOCH":27590,"BSTAR":0.00012682718,"MEAN_MOTION_DOT":2.57e-6,"MEAN_MOTION_DDOT":0},{"OBJECT_NAME":"SAUDISAT 1C (SO-50)","OBJECT_ID":"2002-058C","EPOCH":"2026-03-07T12:38:22.032096","MEAN_MOTION":14.82773564,"ECCENTRICITY":0.00752084,"INCLINATION":64.552,"RA_OF_ASC_NODE":83.4621,"ARG_OF_PERICENTER":281.1057,"MEAN_ANOMALY":78.1598,"EPHEMERIS_TYPE":0,"CLASSIFICATION_TYPE":"U","NORAD_CAT_ID":27607,"ELEMENT_SET_NO":999,"REV_AT_EPOCH":24938,"BSTAR":0.00031773018,"MEAN_MOTION_DOT":2.551e-5,"MEAN_MOTION_DDOT":0},{"OBJECT_NAME":"CUTE-1 (CO-55)","OBJECT_ID":"2003-031E","EPOCH":"2026-03-07T14:19:21.169056","MEAN_MOTION":14.24264289,"ECCENTRICITY":0.00106132,"INCLINATION":98.678,"RA_OF_ASC_NODE":76.4215,"ARG_OF_PERICENTER":117.8292,"MEAN_ANOMALY":242.3964,"EPHEMERIS_TYPE":0,"CLASSIFICATION_TYPE":"U","NORAD_CAT_ID":27844,"ELEMENT_SET_NO":999,"REV_AT_EPOCH":17721,"BSTAR":0.00023007097,"MEAN_MOTION_DOT":4.87e-6,"MEAN_MOTION_DDOT":0},{"OBJECT_NAME":"CUBESAT XI-IV (CO-57)","OBJECT_ID":"2003-031J","EPOCH":"2026-03-07T11:08:35.855232","MEAN_MOTION":14.23559596,"ECCENTRICITY":0.00102913,"INCLINATION":98.681,"RA_OF_ASC_NODE":76.0849,"ARG_OF_PERICENTER":134.627,"MEAN_ANOMALY":225.575,"EPHEMERIS_TYPE":0,"CLASSIFICATION_TYPE":"U","NORAD_CAT_ID":27848,"ELEMENT_SET_NO":999,"REV_AT_EPOCH":17690,"BSTAR":0.00020013879,"MEAN_MOTION_DOT":4.12e-6,"MEAN_MOTION_DDOT":0},{"OBJECT_NAME":"MOZHAETS 4 (RS22)","OBJECT_ID":"2003-042A","EPOCH":"2026-03-07T14:53:22.875360","MEAN_MOTION":14.7324772,"ECCENTRICITY":0.00103905,"INCLINATION":98.3432,"RA_OF_ASC_NODE":248.124,"ARG_OF_PERICENTER":227.0915,"MEAN_ANOMALY":220.862,"EPHEMERIS_TYPE":0,"CLASSIFICATION_TYPE":"U","NORAD_CAT_ID":27939,"ELEMENT_SET_NO":999,"REV_AT_EPOCH":20059,"BSTAR":0.00030183712,"MEAN_MOTION_DOT":1.897e-5,"MEAN_MOTION_DDOT":0},{"OBJECT_NAME":"CUBESAT XI-V","OBJECT_ID":"2005-043F","EPOCH":"2026-03-07T09:43:28.151616","MEAN_MOTION":14.72309078,"ECCENTRICITY":0.00146106,"INCLINATION":98.2827,"RA_OF_ASC_NODE":219.9857,"ARG_OF_PERICENTER":164.5831,"MEAN_ANOMALY":195.5824,"EPHEMERIS_TYPE":0,"CLASSIFICATION_TYPE":"U","NORAD_CAT_ID":28895,"ELEMENT_SET_NO":999,"REV_AT_EPOCH":8677,"BSTAR":0.00049497181,"MEAN_MOTION_DOT":3.082e-5,"MEAN_MOTION_DDOT":0}]
