OSCAR 7 (AO-7)          
1 07530U 74089B   26066.65132036 -.00000047  00000+0 -58539-5 0  9996
2 07530 101.9970  78.8192 0011985 326.0793 145.7011 12.53696343347794
PHASE 3B (AO-10)        
1 14129U 83058B   26061.53393855 -.00000164  00000+0  00000+0 0  9997
2 14129  25.9320 237.4860 6049007  86.0782 336.7646  2.05874052293290
UOSAT 2 (UO-11)         
1 14781U 84021B   26066.39111532  .00002803  00000+0  29263-3 0  9998
2 14781  97.7950  33.1906 0008241 150.1326 210.0364 14.90497936241965
LUSAT (LO-19)           
1 20442U 90005G   26066.59765572  .00000214  00000+0  93148-4 0  9997
2 20442  98.8937  85.5652 0012261 140.1670 220.0416 14.34087096887831
EYESAT A (AO-27)        
1 22825U 93061C   26066.39949471  .00000168  00000+0  80826-4 0  9996
2 22825  98.6986 133.8077 0009057  45.1996 314.9921 14.30912258692440
ITAMSAT (IO-26)         
1 22826U 93061D   26066.12951425  .00000151  00000+0  73924-4 0  9993
2 22826  98.6935 133.4450 0009335  30.2249 329.9471 14.31335939692713
RADIO ROSTO (RS15)      
1 23439U 94085A   26066.56699169 -.00000038  00000+0  11785-3 0  9994
2 23439  64.8142 107.5666 0152586  22.4265 338.3238 11.27583921284448
JAS-2 (FO-29)           
1 24278U 96046B   26066.57661174 -.00000015  00000+0  20951-4 0  9992
2 24278  98.5383 289.2820 0349915   0.2496 359.8759 13.53268594459420
TECHSAT 1B (GO-32)      
1 25397U 98043D   26066.49226706  .00000136  00000+0  78799-4 0  9999
2 25397  99.0027  56.7110 0002008 122.9565 237.1806 14.24405496436857
ISS (ZARYA)             
1 25544U 98067A   26066.51273615  .00014539  00000+0  27602-3 0  9991
2 25544  51.6318  83.1189 0008132 167.0679 193.0520 15.48507964555998
PCSAT (NO-44)           
1 26931U 01043C   26066.60262644  .00000257  00000+0  12683-3 0  9995
2 26931  67.0508 147.0104 0007011 265.2989  94.7312 14.31911163275905
SAUDISAT 1C (SO-50)     
1 27607U 02058C   26066.52664389  .00002551  00000+0  31773-3 0  9996
2 27607  64.5520  83.4621 0075208 281.1057  78.1598 14.82773564249387
CUTE-1 (CO-55)          
1 27844U 03031E   26066.59677279  .00000487  00000+0  23007-3 0  9997
2 27844  98.6780  76.4215 0010613 117.8292 242.3964 14.24264289177211
CUBESAT XI-IV (CO-57)   
1 27848U 03031J   26066.46430388  .00000412  00000+0  20014-3 0  9998
2 27848  98.6810  76.0849 0010291 134.6270 225.5750 14.23559596176901
MOZHAETS 4 (RS22)       
1 27939U 03042A   26066.62040365  .00001897  00000+0  30184-3 0  9998
2 27939  98.3432 248.1240 0010390 227.0915 220.8620 14.73247720200594
CUBESAT XI-V            
1 28895U 05043F   26066.40518694  .00003082  00000+0  49497-3 0  9999
2 28895  98.2827 219.9857 0014610 164.5831 195.5824 14.72309078 86774
